[{"OBJECT_NAME":"STARLINK-34084","OBJECT_ID":"2025-099U","EPOCH":"2026-03-09T07:31:00.876576","MEAN_MOTION":15.27590814,"ECCENTRICITY":5.596e-5,"INCLINATION":42.9963,"RA_OF_ASC_NODE":177.9147,"ARG_OF_PERICENTER":254.2506,"MEAN_ANOMALY":105.8284,"EPHEMERIS_TYPE":0,"CLASSIFICATION_TYPE":"U","NORAD_CAT_ID":63970,"ELEMENT_SET_NO":999,"REV_AT_EPOCH":4728,"BSTAR":0.0015426738,"MEAN_MOTION_DOT":0.00042448,"MEAN_MOTION_DDOT":0},{"OBJECT_NAME":"COSMOS 2251 DEB","OBJECT_ID":"1993-036RB","EPOCH":"2026-03-09T01:08:04.800192","MEAN_MOTION":15.30699894,"ECCENTRICITY":0.00252965,"INCLINATION":73.7308,"RA_OF_ASC_NODE":76.2904,"ARG_OF_PERICENTER":263.9966,"MEAN_ANOMALY":95.8352,"EPHEMERIS_TYPE":0,"CLASSIFICATION_TYPE":"U","NORAD_CAT_ID":34410,"ELEMENT_SET_NO":999,"REV_AT_EPOCH":91089,"BSTAR":0.003018315,"MEAN_MOTION_DOT":0.00091531,"MEAN_MOTION_DDOT":0}]
